[{"OBJECT_NAME":"TIANMU-1 10","OBJECT_ID":"2023-101D","EPOCH":"2026-03-09T23:06:46.939392","MEAN_MOTION":15.2921896,"ECCENTRICITY":0.00069292,"INCLINATION":97.2749,"RA_OF_ASC_NODE":122.1027,"ARG_OF_PERICENTER":133.6162,"MEAN_ANOMALY":226.5654,"EPHEMERIS_TYPE":0,"CLASSIFICATION_TYPE":"U","NORAD_CAT_ID":57402,"ELEMENT_SET_NO":999,"REV_AT_EPOCH":14647,"BSTAR":0.00032238884,"MEAN_MOTION_DOT":9.075e-5,"MEAN_MOTION_DDOT":0},{"OBJECT_NAME":"STARLINK-31116","OBJECT_ID":"2024-027S","EPOCH":"2026-03-09T22:14:46.341600","MEAN_MOTION":15.3018636,"ECCENTRICITY":0.00010289,"INCLINATION":53.1607,"RA_OF_ASC_NODE":308.5889,"ARG_OF_PERICENTER":104.816,"MEAN_ANOMALY":255.2955,"EPHEMERIS_TYPE":0,"CLASSIFICATION_TYPE":"U","NORAD_CAT_ID":58947,"ELEMENT_SET_NO":999,"REV_AT_EPOCH":11736,"BSTAR":4.776632e-5,"MEAN_MOTION_DOT":1.055e-5,"MEAN_MOTION_DDOT":0}]
